#dV2023  1 30 10  0  0.00000000    1682       CTS   FIT  GFZ
## 2247 122400.00000000    30.00000000 59974 0.4166666666667
+    1   L65  0  0  0  0  0  0  0  0  0  0  0  0  0  0  0  0
+          0  0  0  0  0  0  0  0  0  0  0  0  0  0  0  0  0
+          0  0  0  0  0  0  0  0  0  0  0  0  0  0  0  0  0
+          0  0  0  0  0  0  0  0  0  0  0  0  0  0  0  0  0
+          0  0  0  0  0  0  0  0  0  0  0  0  0  0  0  0  0
++         0  0  0  0  0  0  0  0  0  0  0  0  0  0  0  0  0
++         0  0  0  0  0  0  0  0  0  0  0  0  0  0  0  0  0
++         0  0  0  0  0  0  0  0  0  0  0  0  0  0  0  0  0
++         0  0  0  0  0  0  0  0  0  0  0  0  0  0  0  0  0
++         0  0  0  0  0  0  0  0  0  0  0  0  0  0  0  0  0
%c L  cc GPS ccc cccc cccc cccc cccc ccccc ccccc ccccc ccccc
%c cc cc ccc ccc cccc cccc cccc cccc ccccc ccccc ccccc ccccc
%f  0.0000000  0.000000000  0.00000000000  0.000000000000000
%f  0.0000000  0.000000000  0.00000000000  0.000000000000000
%i    0    0    0    0      0      0      0      0         0
%i    0    0    0    0      0      0      0      0         0
/* CCCCCCCCCCCCCCCCCCCCCCCCCCCCCCCCCCCCCCCCCCCCCCCCCCCCCCCCCCCCCCCCCCCCCCCCCCCCC
/* C                             GFZ RSO-ORBIT                                 C
/* C DOI: https://doi.org/10.5880/GFZ_ORBIT/RSO/L65_G_v02                      C
/* C                                                                           C
/* C DORIS        RMS: not applicable                                          C
/* C GNSS-E Code  RMS: not applicable                                          C
/* C GNSS-E Phase RMS: not applicable                                          C
/* C GNSS-G Code  RMS:  49.478 [cm]   Obs.acc.:     13616 Obs.eli.:      1331  C
/* C GNSS-G Phase RMS:   4.326 [mm]   Obs.acc.:     13616 Obs.eli.:      1331  C
/* C SLR          RMS:   1.821 [cm]   Obs.acc.:        11 Obs.eli.:         0  C
/* C                                                                           C
/* CCCCCCCCCCCCCCCCCCCCCCCCCCCCCCCCCCCCCCCCCCCCCCCCCCCCCCCCCCCCCCCCCCCCCCCCCCCCC
*  2023  1 30 15  6  0.00000000
PL65  -4553.063698   -855.029241   5059.783656   3765.686831
VL65 -55514.315768  -9008.177209 -51470.471724 999999.999999
*  2023  1 30 15  6 30.00000000
PL65  -4717.121412   -881.216288   4902.588796   3766.155130
VL65 -53846.962051  -8449.452203 -53316.460605 999999.999999
*  2023  1 30 15  7  0.00000000
PL65  -4876.083202   -905.723986   4739.943768   3766.623589
VL65 -52117.341916  -7888.759259 -55103.575383 999999.999999
*  2023  1 30 15  7 30.00000000
PL65  -5029.765082   -928.547762   4572.028240   3767.092088
VL65 -50327.343349  -7326.984205 -56829.796375 999999.999999
*  2023  1 30 15  8  0.00000000
PL65  -5177.988841   -949.685688   4399.027840   3767.560802
VL65 -48478.926855  -6765.005920 -58493.170162 999999.999999
*  2023  1 30 15  8 30.00000000
PL65  -5320.582255   -969.138465   4221.133954   3768.029449
VL65 -46574.124107  -6203.695276 -60091.811239 999999.999999
*  2023  1 30 15  9  0.00000000
PL65  -5457.379299   -986.909390   4038.543522   3768.498085
VL65 -44615.036487  -5643.914144 -61623.904614 999999.999999
*  2023  1 30 15  9 30.00000000
PL65  -5588.220355  -1003.004332   3851.458818   3768.967103
VL65 -42603.832538  -5086.514274 -63087.708719 999999.999999
*  2023  1 30 15 10  0.00000000
PL65  -5712.952409  -1017.431698   3660.087228   3769.435731
VL65 -40542.745102  -4532.335939 -64481.557205 999999.999999
*  2023  1 30 15 10 30.00000000
PL65  -5831.429235  -1030.202397   3464.641023   3769.904431
VL65 -38434.069249  -3982.206676 -65803.860366 999999.999999
*  2023  1 30 15 11  0.00000000
PL65  -5943.511589  -1041.329801   3265.337125   3770.373158
VL65 -36280.160522  -3436.940145 -67053.106762 999999.999999
*  2023  1 30 15 11 30.00000000
PL65  -6049.067378  -1050.829699   3062.396873   3770.841789
VL65 -34083.433396  -2897.334817 -68227.865467 999999.999999
*  2023  1 30 15 12  0.00000000
PL65  -6147.971841  -1058.720254   2856.045771   3771.310206
VL65 -31846.359375  -2364.172717 -69326.788760 999999.999999
*  2023  1 30 15 12 30.00000000
PL65  -6240.107712  -1065.021944   2646.513239   3771.778687
VL65 -29571.464286  -1838.218313 -70348.615993 999999.999999
*  2023  1 30 15 13  0.00000000
PL65  -6325.365379  -1069.757518   2434.032345   3772.247190
VL65 -27261.323054  -1320.217389 -71292.176564 999999.999999
*  2023  1 30 15 13 30.00000000
PL65  -6403.643022  -1072.951929   2218.839530   3772.715939
VL65 -24918.555318   -810.896289 -72156.390042 999999.999999
*  2023  1 30 15 14  0.00000000
PL65  -6474.846745  -1074.632282   2001.174344   3773.184763
VL65 -22545.823043   -310.961230 -72940.267309 999999.999999
*  2023  1 30 15 14 30.00000000
PL65  -6538.890695  -1074.827768   1781.279162   3773.653567
VL65 -20145.826768    178.903090 -73642.912300 999999.999999
*  2023  1 30 15 15  0.00000000
PL65  -6595.697176  -1073.569597   1559.398908   3774.122455
VL65 -17721.301964    658.035040 -74263.522599 999999.999999
*  2023  1 30 15 15 30.00000000
PL65  -6645.196745  -1070.890929   1335.780772   3774.591624
VL65 -15275.016166   1125.796844 -74801.389918 999999.999999
*  2023  1 30 15 16  0.00000000
PL65  -6687.328308  -1066.826800   1110.673927   3775.060773
VL65 -12809.766424   1581.575299 -75255.901629 999999.999999
*  2023  1 30 15 16 30.00000000
PL65  -6722.039202  -1061.414048    884.329236   3775.529524
VL65 -10328.375338   2024.783006 -75626.542765 999999.999999
*  2023  1 30 15 17  0.00000000
PL65  -6749.285262  -1054.691234    656.998961   3775.997970
VL65  -7833.686106   2454.859233 -75912.896255 999999.999999
*  2023  1 30 15 17 30.00000000
PL65  -6769.030880  -1046.698559    428.936469   3776.466332
VL65  -5328.559275   2871.270141 -76114.642259 999999.999999
*  2023  1 30 15 18  0.00000000
PL65  -6781.249055  -1037.477786    200.395940   3776.934691
VL65  -2815.870267   3273.509233 -76231.559017 999999.999999
*  2023  1 30 15 18 30.00000000
PL65  -6785.921426  -1027.072155    -28.367930   3777.403178
VL65   -298.505438   3661.098340 -76263.524089 999999.999999
*  2023  1 30 15 19  0.00000000
PL65  -6783.038304  -1015.526296   -257.100226   3777.871673
VL65   2220.642246   4033.588577 -76210.514377 999999.999999
*  2023  1 30 15 19 30.00000000
PL65  -6772.598685  -1002.886142   -485.546114   3778.340351
VL65   4738.676893   4390.561067 -76072.605952 999999.999999
*  2023  1 30 15 20  0.00000000
PL65  -6754.610251   -989.198836   -713.451135   3778.809137
VL65   7252.703858   4731.627642 -75849.974203 999999.999999
*  2023  1 30 15 20 30.00000000
PL65  -6729.089359   -974.512640   -940.561506   3779.277942
VL65   9759.834410   5056.431435 -75542.892767 999999.999999
*  2023  1 30 15 21  0.00000000
PL65  -6696.061021   -958.876837  -1166.624409   3779.746902
VL65  12257.188717   5364.646830 -75151.731549 999999.999999
*  2023  1 30 15 21 30.00000000
PL65  -6655.558872   -942.341643  -1391.388279   3780.215900
VL65  14741.897858   5655.979088 -74676.956604 999999.999999
*  2023  1 30 15 22  0.00000000
PL65  -6607.625134   -924.958111  -1614.603094   3780.684880
VL65  17211.107492   5930.164577 -74119.130467 999999.999999
*  2023  1 30 15 22 30.00000000
PL65  -6552.310564   -906.778035  -1836.020666   3781.153768
VL65  19661.981618   6186.971363 -73478.911690 999999.999999
*  2023  1 30 15 23  0.00000000
PL65  -6489.674394   -887.853863  -2055.394922   3781.622583
VL65  22091.706862   6426.199009 -72757.054136 999999.999999
*  2023  1 30 15 23 30.00000000
PL65  -6419.784259   -868.238591  -2272.482196   3782.091333
VL65  24497.496241   6647.678122 -71954.405802 999999.999999
*  2023  1 30 15 24  0.00000000
PL65  -6342.716110   -847.985681  -2487.041505   3782.560075
VL65  26876.592907   6851.271171 -71071.908356 999999.999999
*  2023  1 30 15 24 30.00000000
PL65  -6258.554117   -827.148956  -2698.834828   3783.028772
VL65  29226.275330   7036.873766 -70110.595158 999999.999999
*  2023  1 30 15 25  0.00000000
PL65  -6167.390557   -805.782501  -2907.627378   3783.497505
VL65  31543.860109   7204.415119 -69071.587364 999999.999999
*  2023  1 30 15 25 30.00000000
PL65  -6069.325700   -783.940565  -3113.187862   3783.966278
VL65  33826.702829   7353.857157 -67956.092150 999999.999999
*  2023  1 30 15 26  0.00000000
PL65  -5964.467687   -761.677464  -3315.288734   3784.435132
VL65  36072.200918   7485.193738 -66765.402914 999999.999999
*  2023  1 30 15 26 30.00000000
PL65  -5852.932397   -739.047483  -3513.706461   3784.903953
VL65  38277.798450   7598.450899 -65500.897797 999999.999999
*  2023  1 30 15 27  0.00000000
PL65  -5734.843304   -716.104781  -3708.221762   3785.372728
VL65  40440.989550   7693.686593 -64164.036538 999999.999999
*  2023  1 30 15 27 30.00000000
PL65  -5610.331322   -692.903297  -3898.619860   3785.841538
VL65  42559.320516   7770.990013 -62756.358023 999999.999999
*  2023  1 30 15 28  0.00000000
PL65  -5479.534642   -669.496655  -4084.690707   3786.310359
VL65  44630.392147   7830.481277 -61279.478673 999999.999999
*  2023  1 30 15 28 30.00000000
PL65  -5342.598572   -645.938072  -4266.229221   3786.779115
VL65  46651.862932   7872.311160 -59735.090657 999999.999999
*  2023  1 30 15 29  0.00000000
PL65  -5199.675348   -622.280269  -4443.035505   3787.247920
VL65  48621.452365   7896.660432 -58124.959011 999999.999999
*  2023  1 30 15 29 30.00000000
PL65  -5050.923959   -598.575381  -4614.915064   3787.716813
VL65  50536.942542   7903.738890 -56450.918530 999999.999999
*  2023  1 30 15 30  0.00000000
PL65  -4896.509949   -574.874870  -4781.679009   3788.185745
VL65  52396.179301   7893.784473 -54714.872838 999999.999999
*  2023  1 30 15 30 30.00000000
PL65  -4736.605225   -551.229442  -4943.144265   3788.654705
VL65  54197.076435   7867.063055 -52918.793423 999999.999999
*  2023  1 30 15 31  0.00000000
PL65  -4571.387846   -527.688965  -5099.133768   3789.123295
VL65  55937.619753   7823.868877 -51064.714721 999999.999999
EOF
